[{"OBJECT_NAME":"OBJECT A","OBJECT_ID":"2022-023A","EPOCH":"2026-03-07T09:13:29.633664","MEAN_MOTION":15.18202647,"ECCENTRICITY":0.00985337,"INCLINATION":63.4765,"RA_OF_ASC_NODE":256.024,"ARG_OF_PERICENTER":341.4326,"MEAN_ANOMALY":18.3199,"EPHEMERIS_TYPE":0,"CLASSIFICATION_TYPE":"U","NORAD_CAT_ID":51946,"ELEMENT_SET_NO":999,"REV_AT_EPOCH":22226,"BSTAR":0.00019500419,"MEAN_MOTION_DOT":4.303e-5,"MEAN_MOTION_DDOT":0},{"OBJECT_NAME":"STARLINK-33942","OBJECT_ID":"2025-099Y","EPOCH":"2026-03-09T07:02:19.357440","MEAN_MOTION":15.27573374,"ECCENTRICITY":0.00013542,"INCLINATION":42.998,"RA_OF_ASC_NODE":175.162,"ARG_OF_PERICENTER":257.243,"MEAN_ANOMALY":102.827,"EPHEMERIS_TYPE":0,"CLASSIFICATION_TYPE":"U","NORAD_CAT_ID":63974,"ELEMENT_SET_NO":999,"REV_AT_EPOCH":4731,"BSTAR":0.0010712085,"MEAN_MOTION_DOT":0.00029327,"MEAN_MOTION_DDOT":0}]
